{"type": "FeatureCollection", "features": [{"type": "Feature", "properties": {"NOM_COM": "Colina", "ZONA": "chacabuco"}, "geometry": {"type": "Polygon", "coordinates": [[[-70.87, -33.3], [-70.55, -33.3], [-70.55, -33.1], [-70.87, -33.1], [-70.87, -33.3]]]}}, {"type": "Feature", "properties": {"NOM_COM": "Lampa", "ZONA": "chacabuco"}, "geometry": {"type": "Polygon", "coordinates": [[[-71.08, -33.42], [-70.87, -33.42], [-70.87, -33.22], [-71.08, -33.22], [-71.08, -33.42]]]}}, {"type": "Feature", "properties": {"NOM_COM": "Til Til", "ZONA": null}, "geometry": {"type": "Polygon", "coordinates": [[[-70.95, -33.1], [-70.65, -33.1], [-70.65, -32.9], [-70.95, -32.9], [-70.95, -33.1]]]}}, {"type": "Feature", "properties": {"NOM_COM": "Quilicura", "ZONA": "norte"}, "geometry": {"type": "Polygon", "coordinates": [[[-70.8, -33.41], [-70.7, -33.41], [-70.7, -33.33], [-70.8, -33.33], [-70.8, -33.41]]]}}, {"type": "Feature", "properties": {"NOM_COM": "Huechuraba", "ZONA": "norte"}, "geometry": {"type": "Polygon", "coordinates": [[[-70.7, -33.4], [-70.61, -33.4], [-70.61, -33.33], [-70.7, -33.33], [-70.7, -33.4]]]}}, {"type": "Feature", "properties": {"NOM_COM": "Conchalí", "ZONA": "norte"}, "geometry": {"type": "Polygon", "coordinates": [[[-70.73, -33.44], [-70.65, -33.44], [-70.65, -33.39], [-70.73, -33.39], [-70.73, -33.44]]]}}, {"type": "Feature", "properties": {"NOM_COM": "Independencia", "ZONA": "norte"}, "geometry": {"type": "Polygon", "coordinates": [[[-70.68, -33.44], [-70.63, -33.44], [-70.63, -33.4], [-70.68, -33.4], [-70.68, -33.44]]]}}, {"type": "Feature", "properties": {"NOM_COM": "Recoleta", "ZONA": "norte"}, "geometry": {"type": "Polygon", "coordinates": [[[-70.63, -33.44], [-70.57, -33.44], [-70.57, -33.39], [-70.63, -33.39], [-70.63, -33.44]]]}}, {"type": "Feature", "properties": {"NOM_COM": "Renca", "ZONA": "norte"}, "geometry": {"type": "Polygon", "coordinates": [[[-70.8, -33.47], [-70.73, -33.47], [-70.73, -33.4], [-70.8, -33.4], [-70.8, -33.47]]]}}, {"type": "Feature", "properties": {"NOM_COM": "Quinta Normal", "ZONA": "poniente"}, "geometry": {"type": "Polygon", "coordinates": [[[-70.76, -33.49], [-70.71, -33.49], [-70.71, -33.44], [-70.76, -33.44], [-70.76, -33.49]]]}}, {"type": "Feature", "properties": {"NOM_COM": "Lo Prado", "ZONA": "poniente"}, "geometry": {"type": "Polygon", "coordinates": [[[-70.8, -33.5], [-70.76, -33.5], [-70.76, -33.45], [-70.8, -33.45], [-70.8, -33.5]]]}}, {"type": "Feature", "properties": {"NOM_COM": "Cerro Navia", "ZONA": "poniente"}, "geometry": {"type": "Polygon", "coordinates": [[[-70.83, -33.47], [-70.78, -33.47], [-70.78, -33.42], [-70.83, -33.42], [-70.83, -33.47]]]}}, {"type": "Feature", "properties": {"NOM_COM": "Pudahuel", "ZONA": "poniente"}, "geometry": {"type": "Polygon", "coordinates": [[[-70.95, -33.54], [-70.82, -33.54], [-70.82, -33.42], [-70.95, -33.42], [-70.95, -33.54]]]}}, {"type": "Feature", "properties": {"NOM_COM": "Cerrillos", "ZONA": "poniente"}, "geometry": {"type": "Polygon", "coordinates": [[[-70.83, -33.54], [-70.76, -33.54], [-70.76, -33.49], [-70.83, -33.49], [-70.83, -33.54]]]}}, {"type": "Feature", "properties": {"NOM_COM": "Maipú", "ZONA": "poniente"}, "geometry": {"type": "Polygon", "coordinates": [[[-70.93, -33.62], [-70.72, -33.62], [-70.72, -33.54], [-70.93, -33.54], [-70.93, -33.62]]]}}, {"type": "Feature", "properties": {"NOM_COM": "Vitacura", "ZONA": "oriente"}, "geometry": {"type": "Polygon", "coordinates": [[[-70.61, -33.42], [-70.55, -33.42], [-70.55, -33.37], [-70.61, -33.37], [-70.61, -33.42]]]}}, {"type": "Feature", "properties": {"NOM_COM": "Providencia", "ZONA": "oriente"}, "geometry": {"type": "Polygon", "coordinates": [[[-70.63, -33.45], [-70.58, -33.45], [-70.58, -33.42], [-70.63, -33.42], [-70.63, -33.45]]]}}, {"type": "Feature", "properties": {"NOM_COM": "Las Condes", "ZONA": "oriente"}, "geometry": {"type": "Polygon", "coordinates": [[[-70.56, -33.48], [-70.47, -33.48], [-70.47, -33.37], [-70.56, -33.37], [-70.56, -33.48]]]}}, {"type": "Feature", "properties": {"NOM_COM": "Ñuñoa", "ZONA": "oriente"}, "geometry": {"type": "Polygon", "coordinates": [[[-70.62, -33.49], [-70.57, -33.49], [-70.57, -33.45], [-70.62, -33.45], [-70.62, -33.49]]]}}, {"type": "Feature", "properties": {"NOM_COM": "La Reina", "ZONA": "oriente"}, "geometry": {"type": "Polygon", "coordinates": [[[-70.57, -33.5], [-70.51, -33.5], [-70.51, -33.45], [-70.57, -33.45], [-70.57, -33.5]]]}}, {"type": "Feature", "properties": {"NOM_COM": "Santiago", "ZONA": "centro"}, "geometry": {"type": "Polygon", "coordinates": [[[-70.7, -33.47], [-70.63, -33.47], [-70.63, -33.43], [-70.7, -33.43], [-70.7, -33.47]]]}}, {"type": "Feature", "properties": {"NOM_COM": "Estación Central", "ZONA": "centro"}, "geometry": {"type": "Polygon", "coordinates": [[[-70.75, -33.51], [-70.7, -33.51], [-70.7, -33.46], [-70.75, -33.46], [-70.75, -33.51]]]}}, {"type": "Feature", "properties": {"NOM_COM": "Macul", "ZONA": "sur"}, "geometry": {"type": "Polygon", "coordinates": [[[-70.62, -33.53], [-70.57, -33.53], [-70.57, -33.49], [-70.62, -33.49], [-70.62, -33.53]]]}}, {"type": "Feature", "properties": {"NOM_COM": "San Joaquín", "ZONA": "sur"}, "geometry": {"type": "Polygon", "coordinates": [[[-70.67, -33.53], [-70.62, -33.53], [-70.62, -33.49], [-70.67, -33.49], [-70.67, -33.53]]]}}, {"type": "Feature", "properties": {"NOM_COM": "Pedro Aguirre Cerda", "ZONA": "sur"}, "geometry": {"type": "Polygon", "coordinates": [[[-70.72, -33.54], [-70.67, -33.54], [-70.67, -33.5], [-70.72, -33.5], [-70.72, -33.54]]]}}, {"type": "Feature", "properties": {"NOM_COM": "Lo Espejo", "ZONA": "sur"}, "geometry": {"type": "Polygon", "coordinates": [[[-70.75, -33.56], [-70.7, -33.56], [-70.7, -33.51], [-70.75, -33.51], [-70.75, -33.56]]]}}, {"type": "Feature", "properties": {"NOM_COM": "La Cisterna", "ZONA": "sur"}, "geometry": {"type": "Polygon", "coordinates": [[[-70.67, -33.56], [-70.62, -33.56], [-70.62, -33.52], [-70.67, -33.52], [-70.67, -33.56]]]}}, {"type": "Feature", "properties": {"NOM_COM": "San Miguel", "ZONA": "sur"}, "geometry": {"type": "Polygon", "coordinates": [[[-70.67, -33.52], [-70.62, -33.52], [-70.62, -33.48], [-70.67, -33.48], [-70.67, -33.52]]]}}, {"type": "Feature", "properties": {"NOM_COM": "La Granja", "ZONA": "sur"}, "geometry": {"type": "Polygon", "coordinates": [[[-70.62, -33.58], [-70.57, -33.58], [-70.57, -33.53], [-70.62, -33.53], [-70.62, -33.58]]]}}, {"type": "Feature", "properties": {"NOM_COM": "San Ramón", "ZONA": "sur"}, "geometry": {"type": "Polygon", "coordinates": [[[-70.67, -33.59], [-70.62, -33.59], [-70.62, -33.55], [-70.67, -33.55], [-70.67, -33.59]]]}}, {"type": "Feature", "properties": {"NOM_COM": "El Bosque", "ZONA": "sur"}, "geometry": {"type": "Polygon", "coordinates": [[[-70.72, -33.61], [-70.66, -33.61], [-70.66, -33.56], [-70.72, -33.56], [-70.72, -33.61]]]}}, {"type": "Feature", "properties": {"NOM_COM": "La Pintana", "ZONA": "sur"}, "geometry": {"type": "Polygon", "coordinates": [[[-70.62, -33.64], [-70.56, -33.64], [-70.56, -33.58], [-70.62, -33.58], [-70.62, -33.64]]]}}, {"type": "Feature", "properties": {"NOM_COM": "Peñalolén", "ZONA": "sur"}, "geometry": {"type": "Polygon", "coordinates": [[[-70.55, -33.55], [-70.48, -33.55], [-70.48, -33.48], [-70.55, -33.48], [-70.55, -33.55]]]}}, {"type": "Feature", "properties": {"NOM_COM": "La Florida", "ZONA": "sur"}, "geometry": {"type": "Polygon", "coordinates": [[[-70.57, -33.6], [-70.49, -33.6], [-70.49, -33.54], [-70.57, -33.54], [-70.57, -33.6]]]}}, {"type": "Feature", "properties": {"NOM_COM": "Padre Hurtado", "ZONA": "talagante"}, "geometry": {"type": "Polygon", "coordinates": [[[-70.88, -33.6], [-70.8, -33.6], [-70.8, -33.54], [-70.88, -33.54], [-70.88, -33.6]]]}}, {"type": "Feature", "properties": {"NOM_COM": "Peñaflor", "ZONA": "talagante"}, "geometry": {"type": "Polygon", "coordinates": [[[-70.97, -33.65], [-70.87, -33.65], [-70.87, -33.59], [-70.97, -33.59], [-70.97, -33.65]]]}}, {"type": "Feature", "properties": {"NOM_COM": "Talagante", "ZONA": "talagante"}, "geometry": {"type": "Polygon", "coordinates": [[[-71.02, -33.71], [-70.92, -33.71], [-70.92, -33.64], [-71.02, -33.64], [-71.02, -33.71]]]}}, {"type": "Feature", "properties": {"NOM_COM": "El Monte", "ZONA": null}, "geometry": {"type": "Polygon", "coordinates": [[[-71.08, -33.7], [-71.02, -33.7], [-71.02, -33.62], [-71.08, -33.62], [-71.08, -33.7]]]}}, {"type": "Feature", "properties": {"NOM_COM": "Isla de Maipo", "ZONA": null}, "geometry": {"type": "Polygon", "coordinates": [[[-70.92, -33.76], [-70.82, -33.76], [-70.82, -33.68], [-70.92, -33.68], [-70.92, -33.76]]]}}, {"type": "Feature", "properties": {"NOM_COM": "Puente Alto", "ZONA": "cordillera"}, "geometry": {"type": "Polygon", "coordinates": [[[-70.64, -33.65], [-70.55, -33.65], [-70.55, -33.58], [-70.64, -33.58], [-70.64, -33.65]]]}}, {"type": "Feature", "properties": {"NOM_COM": "Pirque", "ZONA": "cordillera"}, "geometry": {"type": "Polygon", "coordinates": [[[-70.58, -33.76], [-70.46, -33.76], [-70.46, -33.63], [-70.58, -33.63], [-70.58, -33.76]]]}}, {"type": "Feature", "properties": {"NOM_COM": "San José de Maipo", "ZONA": "cordillera"}, "geometry": {"type": "Polygon", "coordinates": [[[-70.46, -34.0], [-70.05, -34.0], [-70.05, -33.55], [-70.46, -33.55], [-70.46, -34.0]]]}}, {"type": "Feature", "properties": {"NOM_COM": "San Bernardo", "ZONA": "maipo"}, "geometry": {"type": "Polygon", "coordinates": [[[-70.76, -33.65], [-70.64, -33.65], [-70.64, -33.57], [-70.76, -33.57], [-70.76, -33.65]]]}}, {"type": "Feature", "properties": {"NOM_COM": "Calera de Tango", "ZONA": null}, "geometry": {"type": "Polygon", "coordinates": [[[-70.84, -33.68], [-70.76, -33.68], [-70.76, -33.61], [-70.84, -33.61], [-70.84, -33.68]]]}}, {"type": "Feature", "properties": {"NOM_COM": "Buin", "ZONA": "maipo"}, "geometry": {"type": "Polygon", "coordinates": [[[-70.8, -33.78], [-70.68, -33.78], [-70.68, -33.69], [-70.8, -33.69], [-70.8, -33.78]]]}}, {"type": "Feature", "properties": {"NOM_COM": "Paine", "ZONA": null}, "geometry": {"type": "Polygon", "coordinates": [[[-70.82, -33.92], [-70.6, -33.92], [-70.6, -33.78], [-70.82, -33.78], [-70.82, -33.92]]]}}, {"type": "Feature", "properties": {"NOM_COM": "Curacaví", "ZONA": null}, "geometry": {"type": "Polygon", "coordinates": [[[-71.14, -33.45], [-70.95, -33.45], [-70.95, -33.3], [-71.14, -33.3], [-71.14, -33.45]]]}}, {"type": "Feature", "properties": {"NOM_COM": "María Pinto", "ZONA": null}, "geometry": {"type": "Polygon", "coordinates": [[[-71.12, -33.55], [-70.99, -33.55], [-70.99, -33.44], [-71.12, -33.44], [-71.12, -33.55]]]}}, {"type": "Feature", "properties": {"NOM_COM": "Melipilla", "ZONA": "melipilla"}, "geometry": {"type": "Polygon", "coordinates": [[[-71.35, -33.82], [-71.12, -33.82], [-71.12, -33.65], [-71.35, -33.65], [-71.35, -33.82]]]}}, {"type": "Feature", "properties": {"NOM_COM": "San Pedro", "ZONA": null}, "geometry": {"type": "Polygon", "coordinates": [[[-71.48, -33.95], [-71.3, -33.95], [-71.3, -33.7], [-71.48, -33.7], [-71.48, -33.95]]]}}, {"type": "Feature", "properties": {"NOM_COM": "Alhué", "ZONA": null}, "geometry": {"type": "Polygon", "coordinates": [[[-71.35, -34.1], [-71.05, -34.1], [-71.05, -33.85], [-71.35, -33.85], [-71.35, -34.1]]]}}]}